{
  "norad_id": 64733,
  "name": "STARLINK-34556",
  "history": [
    {
      "epoch": "2026-03-28T06:51:26.654688Z",
      "apogee_km": 476.17268251491714,
      "perigee_km": 474.1893322835749,
      "latitude_deg": -5.141461073664655e-05,
      "longitude_deg": 163.63514122781697,
      "height_km": 475.97757726391416,
      "semi_major_axis_km": 6853.318007399245,
      "eccentricity": 0.0001447,
      "inclination_deg": 53.1594,
      "raan_deg": 92.2046,
      "arg_perigee_deg": 84.1416,
      "mean_anomaly_deg": 275.9749,
      "mean_motion_rev_day": 15.30211408
    },
    {
      "epoch": "2026-03-29T04:48:11.612160Z",
      "apogee_km": 476.2274184836933,
      "perigee_km": 474.1988268473833,
      "latitude_deg": -1.3497429867271639e-05,
      "longitude_deg": -170.700036362246,
      "height_km": 475.5909191944148,
      "semi_major_axis_km": 6853.350122665538,
      "eccentricity": 0.000148,
      "inclination_deg": 53.1601,
      "raan_deg": 87.958,
      "arg_perigee_deg": 59.1383,
      "mean_anomaly_deg": 300.9763,
      "mean_motion_rev_day": 15.30200652
    },
    {
      "epoch": "2026-03-29T23:36:49.898304Z",
      "apogee_km": 476.42880067533133,
      "perigee_km": 473.91774779085245,
      "latitude_deg": 3.51754720932503e-05,
      "longitude_deg": -97.27485063147812,
      "height_km": 476.2496571275608,
      "semi_major_axis_km": 6853.310274233092,
      "eccentricity": 0.0001832,
      "inclination_deg": 53.1602,
      "raan_deg": 84.3152,
      "arg_perigee_deg": 98.1991,
      "mean_anomaly_deg": 261.9218,
      "mean_motion_rev_day": 15.30213998
    },
    {
      "epoch": "2026-03-30T05:53:02.713920Z",
      "apogee_km": 475.6990330290955,
      "perigee_km": 474.73462907798967,
      "latitude_deg": -2.9680413084975877e-05,
      "longitude_deg": 167.20179388565646,
      "height_km": 475.93415570900146,
      "semi_major_axis_km": 6853.353831053542,
      "eccentricity": 7.036e-05,
      "inclination_deg": 53.1605,
      "raan_deg": 83.1028,
      "arg_perigee_deg": 67.8722,
      "mean_anomaly_deg": 292.2353,
      "mean_motion_rev_day": 15.3019941
    },
    {
      "epoch": "2026-03-30T09:01:08.993856Z",
      "apogee_km": 475.8929478035261,
      "perigee_km": 474.48006662927855,
      "latitude_deg": 5.797024483569591e-05,
      "longitude_deg": 119.43863987027093,
      "height_km": 475.97118435356606,
      "semi_major_axis_km": 6853.3235072164025,
      "eccentricity": 0.00010308,
      "inclination_deg": 53.1605,
      "raan_deg": 82.4945,
      "arg_perigee_deg": 80.7306,
      "mean_anomaly_deg": 279.3812,
      "mean_motion_rev_day": 15.30209566
    },
    {
      "epoch": "2026-03-30T23:07:37.891200Z",
      "apogee_km": 476.56433644358003,
      "perigee_km": 473.7912111535097,
      "latitude_deg": -3.376557839595066e-05,
      "longitude_deg": -95.49292948019207,
      "height_km": 476.21389256640157,
      "semi_major_axis_km": 6853.314773798545,
      "eccentricity": 0.00020232,
      "inclination_deg": 53.1589,
      "raan_deg": 79.7628,
      "arg_perigee_deg": 95.7622,
      "mean_anomaly_deg": 264.3609,
      "mean_motion_rev_day": 15.30212491
    },
    {
      "epoch": "2026-03-31T16:22:13.247328Z",
      "apogee_km": 476.2150854191623,
      "perigee_km": 474.20842490365067,
      "latitude_deg": -1.1817932155248532e-05,
      "longitude_deg": 1.8145194811278709,
      "height_km": 476.17557074510125,
      "semi_major_axis_km": 6853.348755161406,
      "eccentricity": 0.0001464,
      "inclination_deg": 53.1607,
      "raan_deg": 76.4257,
      "arg_perigee_deg": 93.7676,
      "mean_anomaly_deg": 266.3492,
      "mean_motion_rev_day": 15.3020111
    },
    {
      "epoch": "2026-04-01T15:53:01.169376Z",
      "apogee_km": 476.27075208224323,
      "perigee_km": 474.08454470940524,
      "latitude_deg": -1.5960233796849288e-05,
      "longitude_deg": 3.5989850599664446,
      "height_km": 476.0129271372827,
      "semi_major_axis_km": 6853.3146483958235,
      "eccentricity": 0.0001595,
      "inclination_deg": 53.1611,
      "raan_deg": 71.8755,
      "arg_perigee_deg": 86.7236,
      "mean_anomaly_deg": 273.3947,
      "mean_motion_rev_day": 15.30212533
    },
    {
      "epoch": "2026-04-02T07:33:33.031296Z",
      "apogee_km": 476.2152076001985,
      "perigee_km": 474.17291494393976,
      "latitude_deg": 4.9443255035473714e-06,
      "longitude_deg": 124.79027265514188,
      "height_km": 476.0132403698043,
      "semi_major_axis_km": 6853.331061272069,
      "eccentricity": 0.000149,
      "inclination_deg": 53.1601,
      "raan_deg": 68.8433,
      "arg_perigee_deg": 85.5848,
      "mean_anomaly_deg": 274.5323,
      "mean_motion_rev_day": 15.30207036
    },
    {
      "epoch": "2026-04-03T14:54:37.402272Z",
      "apogee_km": 476.1609669270156,
      "perigee_km": 474.3845631159229,
      "latitude_deg": 4.759862102939241e-06,
      "longitude_deg": 7.16611193470691,
      "height_km": 476.1163472589309,
      "semi_major_axis_km": 6853.409765021469,
      "eccentricity": 0.0001296,
      "inclination_deg": 53.161,
      "raan_deg": 62.7749,
      "arg_perigee_deg": 86.4782,
      "mean_anomaly_deg": 273.6367,
      "mean_motion_rev_day": 15.30180677
    },
    {
      "epoch": "2026-04-04T20:41:38.881248Z",
      "apogee_km": 476.3381655489511,
      "perigee_km": 473.9230740397361,
      "latitude_deg": 3.8640170568453204e-05,
      "longitude_deg": -86.57710098130102,
      "height_km": 475.9851087923634,
      "semi_major_axis_km": 6853.267619794343,
      "eccentricity": 0.0001762,
      "inclination_deg": 53.1613,
      "raan_deg": 57.011,
      "arg_perigee_deg": 87.9573,
      "mean_anomaly_deg": 272.163,
      "mean_motion_rev_day": 15.30228284
    },
    {
      "epoch": "2026-04-05T13:56:13.168608Z",
      "apogee_km": 476.31626900649917,
      "perigee_km": 473.9080372540893,
      "latitude_deg": 2.3703808014935295e-05,
      "longitude_deg": 10.734083722602081,
      "height_km": 475.8720674417335,
      "semi_major_axis_km": 6853.249153130294,
      "eccentricity": 0.0001757,
      "inclination_deg": 53.1588,
      "raan_deg": 53.6732,
      "arg_perigee_deg": 83.4489,
      "mean_anomaly_deg": 276.6712,
      "mean_motion_rev_day": 15.30234469
    },
    {
      "epoch": "2026-04-05T13:56:13.169472Z",
      "apogee_km": 476.3162004740079,
      "perigee_km": 473.9081057865815,
      "latitude_deg": 2.4616801641685436e-05,
      "longitude_deg": 10.73408079299927,
      "height_km": 475.8720752610069,
      "semi_major_axis_km": 6853.249153130294,
      "eccentricity": 0.00017569,
      "inclination_deg": 53.1588,
      "raan_deg": 53.6732,
      "arg_perigee_deg": 83.4489,
      "mean_anomaly_deg": 276.6712,
      "mean_motion_rev_day": 15.30234469
    },
    {
      "epoch": "2026-04-06T02:28:38.420544Z",
      "apogee_km": 476.15289395532636,
      "perigee_km": 474.29083635166444,
      "latitude_deg": 2.621639637370254e-05,
      "longitude_deg": 179.68685440475812,
      "height_km": 475.9191577054596,
      "semi_major_axis_km": 6853.358865153496,
      "eccentricity": 0.00013585,
      "inclination_deg": 53.1595,
      "raan_deg": 51.2462,
      "arg_perigee_deg": 77.5543,
      "mean_anomaly_deg": 282.561,
      "mean_motion_rev_day": 15.30197724
    },
    {
      "epoch": "2026-04-07T03:33:29.528352Z",
      "apogee_km": 475.84200226776284,
      "perigee_km": 474.543570406443,
      "latitude_deg": -1.0171755320434964e-05,
      "longitude_deg": 157.58804097940575,
      "height_km": 475.7718582088695,
      "semi_major_axis_km": 6853.329786337103,
      "eccentricity": 9.473e-05,
      "inclination_deg": 53.1593,
      "raan_deg": 46.3904,
      "arg_perigee_deg": 60.5156,
      "mean_anomaly_deg": 299.5939,
      "mean_motion_rev_day": 15.30207463
    },
    {
      "epoch": "2026-04-08T06:12:24.090624Z",
      "apogee_km": 476.0158946898273,
      "perigee_km": 474.45483353272994,
      "latitude_deg": 3.508564999323784e-05,
      "longitude_deg": 111.61151402600875,
      "height_km": 476.0563381364633,
      "semi_major_axis_km": 6853.372364111278,
      "eccentricity": 0.00011389,
      "inclination_deg": 53.16,
      "raan_deg": 41.2356,
      "arg_perigee_deg": 84.3178,
      "mean_anomaly_deg": 275.7953,
      "mean_motion_rev_day": 15.30193203
    },
    {
      "epoch": "2026-04-09T05:43:11.949600Z",
      "apogee_km": 476.06129063411936,
      "perigee_km": 474.3955116397192,
      "latitude_deg": 3.597456787685671e-05,
      "longitude_deg": 113.3970426279433,
      "height_km": 476.19280967792497,
      "semi_major_axis_km": 6853.365401136919,
      "eccentricity": 0.00012153,
      "inclination_deg": 53.1597,
      "raan_deg": 36.6862,
      "arg_perigee_deg": 94.5653,
      "mean_anomaly_deg": 265.5487,
      "mean_motion_rev_day": 15.30195535
    },
    {
      "epoch": "2026-04-10T05:13:59.803392Z",
      "apogee_km": 476.0528914088527,
      "perigee_km": 474.2888499629371,
      "latitude_deg": -6.8731919024175756e-06,
      "longitude_deg": 115.18246054987151,
      "height_km": 475.70659397347896,
      "semi_major_axis_km": 6853.307870685894,
      "eccentricity": 0.0001287,
      "inclination_deg": 53.161,
      "raan_deg": 32.1367,
      "arg_perigee_deg": 65.7256,
      "mean_anomaly_deg": 294.3879,
      "mean_motion_rev_day": 15.30214803
    },
    {
      "epoch": "2026-04-11T12:35:03.310368Z",
      "apogee_km": 476.18782187814304,
      "perigee_km": 474.4950127090715,
      "latitude_deg": -2.202046156294594e-05,
      "longitude_deg": -2.4396045748715567,
      "height_km": 476.48387247085674,
      "semi_major_axis_km": 6853.478417293607,
      "eccentricity": 0.0001235,
      "inclination_deg": 53.1605,
      "raan_deg": 26.0668,
      "arg_perigee_deg": 106.7708,
      "mean_anomaly_deg": 253.3428,
      "mean_motion_rev_day": 15.30157685
    },
    {
      "epoch": "2026-04-13T03:46:23.789856Z",
      "apogee_km": 476.0665869851291,
      "perigee_km": 474.27321363545707,
      "latitude_deg": -2.9717943283361276e-05,
      "longitude_deg": 120.53182138559144,
      "height_km": 476.30609845274785,
      "semi_major_axis_km": 6853.306900310293,
      "eccentricity": 0.00013084,
      "inclination_deg": 53.1617,
      "raan_deg": 18.483,
      "arg_perigee_deg": 105.3869,
      "mean_anomaly_deg": 254.7276,
      "mean_motion_rev_day": 15.30215128
    }
  ]
}